NORAD_CAT_ID,OBJECT_NAME,OBJECT_TYPE,EPOCH,MEAN_MOTION,ECCENTRICITY,INCLINATION,RA_OF_ASC_NODE,ARG_OF_PERICENTER,MEAN_ANOMALY,BSTAR,MEAN_MOTION_DOT,MEAN_MOTION_DDOT,TLE_LINE0,TLE_LINE1,TLE_LINE2,SEMIMAJOR_AXIS,PERIOD,APOGEE,PERIGEE,DECAYED
53168.0,STARLINK-4105,PAYLOAD,2023-11-10 11:58:32,15.08859408,0.0001504,53.2184,20.775,92.4793,267.6372,-0.00067157,-0.00010966,0.0,0 STARLINK-4105,1 53168U 22083AN  23314.49898175 -.00010966  00000-0 -67157-3 0  9995,2 53168  53.2184  20.7750 0001504  92.4793 267.6372 15.08859408 73644,6917.821,95.436,540.727,538.646,0.0
53168.0,STARLINK-4105,PAYLOAD,2023-11-10 23:06:15,15.08838173,0.0001393,53.2179,18.6959,87.0407,273.0745,3.0379e-05,1.96e-06,0.0,0 STARLINK-4105,1 53168U 22083AN  23314.96267398  .00000196  00000-0  30379-4 0  9993,2 53168  53.2179  18.6959 0001393  87.0407 273.0745 15.08838173 73712,6917.886,95.438,540.715,538.787,0.0
53168.0,STARLINK-4105,PAYLOAD,2023-11-11 11:49:20,15.08841056,0.0001459,53.2179,16.317,85.4452,274.6707,0.00011361,1.521e-05,0.0,0 STARLINK-4105,1 53168U 22083AN  23315.49259480  .00001521  00000-0  11361-3 0  9997,2 53168  53.2179  16.3170 0001459  85.4452 274.6707 15.08841056 73165,6917.877,95.437,540.751,538.733,0.0
53168.0,STARLINK-4105,PAYLOAD,2023-11-11 21:21:38,15.0884276,0.0001499,53.2179,14.5337,80.8334,279.2828,6.9223e-05,8.14e-06,0.0,0 STARLINK-4105,1 53168U 22083AN  23315.89003347  .00000814  00000-0  69223-4 0  9995,2 53168  53.2179  14.5337 0001499  80.8334 279.2828 15.08842760 73227,6917.872,95.437,540.774,538.7,0.0
53168.0,STARLINK-4105,PAYLOAD,2023-11-12 03:43:11,15.08840016,0.0001523,53.2178,13.3444,84.6562,275.4604,0.00014926,2.088e-05,0.0,0 STARLINK-4105,1 53168U 22083AN  23316.15499612  .00002088  00000-0  14926-3 0  9993,2 53168  53.2178  13.3444 0001523  84.6562 275.4604 15.08840016 73890,6917.88,95.438,540.799,538.692,0.0
53168.0,STARLINK-4105,PAYLOAD,2023-11-12 11:40:07,15.08845423,0.0001419,53.2179,11.8573,87.6415,272.474,0.00018356,2.635e-05,0.0,0 STARLINK-4105,1 53168U 22083AN  23316.48619375  .00002635  00000-0  18356-3 0  9998,2 53168  53.2179  11.8573 0001419  87.6415 272.4740 15.08845423 73313,6917.864,95.437,540.71,538.747,0.0
53168.0,STARLINK-4105,PAYLOAD,2023-11-12 21:12:25,15.08847165,0.000152,53.2178,10.0733,81.8689,278.2475,0.00019411,2.803e-05,0.0,0 STARLINK-4105,1 53168U 22083AN  23316.88363251  .00002803  00000-0  19411-3 0  9991,2 53168  53.2178  10.0733 0001520  81.8689 278.2475 15.08847165 73373,6917.858,95.437,540.775,538.672,0.0
53168.0,STARLINK-4105,PAYLOAD,2023-11-13 09:55:30,15.0885174,0.0001416,53.2178,7.6921,93.8327,266.2827,0.00034636,5.23e-05,0.0,0 STARLINK-4105,1 53168U 22083AN  23317.41354852  .00005230  00000-0  34636-3 0  9991,2 53168  53.2178   7.6921 0001416  93.8327 266.2827 15.08851740 74081,6917.845,95.437,540.689,538.73,0.0
53168.0,STARLINK-4105,PAYLOAD,2023-11-13 21:03:12,15.0884595,0.0001505,53.2174,5.612,83.1444,276.972,0.00010226,1.34e-05,0.0,0 STARLINK-4105,1 53168U 22083AN  23317.87723027  .00001340  00000-0  10226-3 0  9992,2 53168  53.2174   5.6120 0001505  83.1444 276.9720 15.08845950 73521,6917.862,95.437,540.768,538.686,0.0
53168.0,STARLINK-4105,PAYLOAD,2023-11-14 03:24:45,15.08842346,0.0001616,53.2173,4.4224,88.7682,271.3495,6.7253e-05,7.83e-06,0.0,0 STARLINK-4105,1 53168U 22083AN  23318.14219220  .00000783  00000-0  67253-4 0  9991,2 53168  53.2173   4.4224 0001616  88.7682 271.3495 15.08842346 74198,6917.873,95.437,540.856,538.62,0.0
53168.0,STARLINK-4105,PAYLOAD,2023-11-14 09:46:18,15.08838422,0.0001611,53.218,3.2336,86.0379,274.0797,2.7329e-06,-2.45e-06,0.0,0 STARLINK-4105,1 53168U 22083AN  23318.40715376 -.00000245  00000-0  27329-5 0  9998,2 53168  53.2180   3.2336 0001611  86.0379 274.0797 15.08838422 73606,6917.885,95.438,540.865,538.636,0.0
53168.0,STARLINK-4105,PAYLOAD,2023-11-15 09:37:04,15.0884551,0.0001478,53.2179,358.7718,86.2499,273.8662,8.1482e-06,-1.58e-06,0.0,0 STARLINK-4105,1 53168U 22083AN  23319.40074994 -.00000158  00000-0  81482-5 0  9996,2 53168  53.2179 358.7718 0001478  86.2499 273.8662 15.08845510 74382,6917.864,95.437,540.751,538.706,0.0
53168.0,STARLINK-4105,PAYLOAD,2023-11-16 03:06:19,15.08835291,0.0001619,53.2182,355.5017,90.2159,269.9018,0.00010757,1.424e-05,0.0,0 STARLINK-4105,1 53168U 22083AN  23320.12939503  .00001424  00000-0  10757-3 0  9994,2 53168  53.2182 355.5017 0001619  90.2159 269.9018 15.08835291 74496,6917.895,95.438,540.88,538.64,0.0
53168.0,STARLINK-4105,PAYLOAD,2023-11-16 07:52:29,15.08834745,0.0001663,53.2188,354.611,83.7337,276.3844,0.00010317,1.354e-05,0.0,0 STARLINK-4105,1 53168U 22083AN  23320.32811638  .00001354  00000-0  10317-3 0  9998,2 53168  53.2188 354.6110 0001663  83.7337 276.3844 15.08834745 73895,6917.896,95.438,540.912,538.611,0.0
53168.0,STARLINK-4105,PAYLOAD,2023-11-16 19:00:11,15.08837475,0.0001584,53.2186,352.5291,88.2056,271.9118,2.5995e-05,1.26e-06,0.0,0 STARLINK-4105,1 53168U 22083AN  23320.79179695  .00000126  00000-0  25995-4 0  9994,2 53168  53.2186 352.5291 0001584  88.2056 271.9118 15.08837475 73966,6917.888,95.438,540.849,538.657,0.0
53168.0,STARLINK-4105,PAYLOAD,2023-11-17 09:18:39,15.08835186,0.0001674,53.2188,349.8529,97.7603,262.358,6.5886e-05,7.61e-06,0.0,0 STARLINK-4105,1 53168U 22083AN  23321.38795924  .00000761  00000-0  65886-4 0  9997,2 53168  53.2188 349.8529 0001674  97.7603 262.3580 15.08835186 74688,6917.895,95.438,540.918,538.602,0.0
53168.0,STARLINK-4105,PAYLOAD,2023-11-17 12:29:25,15.08839117,0.00017,53.2192,349.2573,98.328,261.7905,5.428e-05,5.76e-06,0.0,0 STARLINK-4105,1 53168U 22083AN  23321.52043682  .00000576  00000-0  54280-4 0  9990,2 53168  53.2192 349.2573 0001700  98.3280 261.7905 15.08839117 74079,6917.883,95.438,540.924,538.572,0.0
53168.0,STARLINK-4105,PAYLOAD,2023-11-17 18:50:58,15.08835465,0.0001563,53.2185,348.0671,91.9732,268.1439,4.8482e-05,4.84e-06,0.0,0 STARLINK-4105,1 53168U 22083AN  23321.78539990  .00000484  00000-0  48482-4 0  9995,2 53168  53.2185 348.0671 0001563  91.9732 268.1439 15.08835465 74115,6917.894,95.438,540.841,538.678,0.0
53168.0,STARLINK-4105,PAYLOAD,2023-11-18 10:44:49,15.08836081,0.0001575,53.2183,345.0932,88.5535,271.5638,9.5082e-05,1.225e-05,0.0,0 STARLINK-4105,1 53168U 22083AN  23322.44780062  .00001225  00000-0  95082-4 0  9999,2 53168  53.2183 345.0932 0001575  88.5535 271.5638 15.08836081 74840,6917.892,95.438,540.847,538.668,0.0
53168.0,STARLINK-4105,PAYLOAD,2023-11-18 18:41:45,15.08831765,0.0001581,53.2183,343.6062,91.7838,268.3335,0.00014767,2.062e-05,0.0,0 STARLINK-4105,1 53168U 22083AN  23322.77900298  .00002062  00000-0  14767-3 0  9990,2 53168  53.2183 343.6062 0001581  91.7838 268.3335 15.08831765 74265,6917.906,95.438,540.864,538.677,0.0
53168.0,STARLINK-4105,PAYLOAD,2023-11-19 09:00:13,15.08843834,0.0001552,53.2182,340.9299,86.4543,273.6626,9.0905e-05,1.159e-05,0.0,0 STARLINK-4105,1 53168U 22083AN  23323.37515734  .00001159  00000-0  90905-4 0  9999,2 53168  53.2182 340.9299 0001552  86.4543 273.6626 15.08843834 74350,6917.869,95.437,540.807,538.66,0.0
53168.0,STARLINK-4105,PAYLOAD,2023-11-19 18:32:32,15.08843678,0.0001595,53.2186,339.1462,88.0691,272.0484,8.5983e-05,1.081e-05,0.0,0 STARLINK-4105,1 53168U 22083AN  23323.77259711  .00001081  00000-0  85983-4 0  9997,2 53168  53.2186 339.1462 0001595  88.0691 272.0484 15.08843678 75043,6917.869,95.437,540.838,538.631,0.0
53168.0,STARLINK-4105,PAYLOAD,2023-11-20 07:15:37,15.08833195,0.0001428,53.2177,336.7675,95.3885,264.727,0.00028247,4.21e-05,0.0,0 STARLINK-4105,1 53168U 22083AN  23324.30251981  .00004210  00000-0  28247-3 0  9994,2 53168  53.2177 336.7675 0001428  95.3885 264.7270 15.08833195 75126,6917.901,95.438,540.754,538.778,0.0
53168.0,STARLINK-4105,PAYLOAD,2023-11-20 18:23:19,15.08840969,0.0001492,53.2175,334.6846,90.3765,269.7398,4.0788e-05,3.61e-06,0.0,0 STARLINK-4105,1 53168U 22083AN  23324.76619896  .00000361  00000-0  40788-4 0  9995,2 53168  53.2175 334.6846 0001492  90.3765 269.7398 15.08840969 74564,6917.877,95.437,540.775,538.71,0.0
53168.0,STARLINK-4105,PAYLOAD,2023-11-21 07:06:24,15.08844658,0.0001733,53.2175,332.3061,90.3833,269.7358,-2.2094e-05,-6.4e-06,0.0,0 STARLINK-4105,1 53168U 22083AN  23325.29611810 -.00000640  00000-0 -22094-4 0  9994,2 53168  53.2175 332.3061 0001733  90.3833 269.7358 15.08844658 74646,6917.866,95.437,540.93,538.532,0.0
53168.0,STARLINK-4105,PAYLOAD,2023-11-22 03:46:25,15.08845009,0.00016,53.2175,328.4408,90.35,269.7675,6.5763e-05,7.59e-06,0.0,0 STARLINK-4105,1 53168U 22083AN  23326.15723445  .00000759  00000-0  65763-4 0  9997,2 53168  53.2175 328.4408 0001600  90.3500 269.7675 15.08845009 75409,6917.865,95.437,540.837,538.623,0.0
53168.0,STARLINK-4105,PAYLOAD,2023-11-22 10:07:56,15.08854197,0.0001539,53.2173,327.2503,94.9098,265.207,0.00011143,1.487e-05,0.0,0 STARLINK-4105,1 53168U 22083AN  23326.42218633  .00001487  00000-0  11143-3 0  9996,2 53168  53.2173 327.2503 0001539  94.9098 265.2070 15.08854197 75445,6917.837,95.437,540.767,538.637,0.0
53168.0,STARLINK-4105,PAYLOAD,2023-11-23 03:37:12,15.08833331,0.0001447,53.217,323.9742,117.2918,242.8221,9.3026e-05,1.193e-05,0.0,0 STARLINK-4105,1 53168U 22083AN  23327.15083989  .00001193  00000-0  93026-4 0  9996,2 53168  53.2170 323.9742 0001447 117.2918 242.8221 15.08833331 75556,6917.901,95.438,540.767,538.765,0.0
53168.0,STARLINK-4105,PAYLOAD,2023-11-23 06:47:58,15.08839838,0.0001583,53.2174,323.3785,121.7884,238.3263,2.8301e-05,1.62e-06,0.0,0 STARLINK-4105,1 53168U 22083AN  23327.28331710  .00000162  00000-0  28301-4 0  9997,2 53168  53.2174 323.3785 0001583 121.7884 238.3263 15.08839838 74940,6917.881,95.438,540.841,538.651,0.0
53168.0,STARLINK-4105,PAYLOAD,2023-11-24 05:03:23,15.08836152,0.0002039,53.2184,319.2211,120.8669,239.2524,-1.7304e-05,-5.64e-06,0.0,0 STARLINK-4105,1 53168U 22083AN  23328.21068516 -.00000564  00000-0 -17304-4 0  9991,2 53168  53.2184 319.2211 0002039 120.8669 239.2524 15.08836152 75719,6917.892,95.438,541.168,538.347,0.0
